[
{
"OBJECT_NAME": "ONEWEB-0027",
"OBJECT_ID": "2020-020J",
"EPOCH": "2021-05-12T15:59:40.916256",
"MEAN_MOTION": 13.22163442,
"ECCENTRICITY": 0.002433,
"INCLINATION": 87.9366,
"RA_OF_ASC_NODE": 16.0072,
"ARG_OF_PERICENTER": 289.9281,
"MEAN_ANOMALY": 69.9232,
"EPHEMERIS_TYPE": 0,
"CLASSIFICATION_TYPE": "U",
"NORAD_CAT_ID": 45432,
"ELEMENT_SET_NO": 999,
"REV_AT_EPOCH": 6121,
"BSTAR": -0.32279,
"MEAN_MOTION_DOT": -0.00132236,
"MEAN_MOTION_DDOT": 0
},
{
"OBJECT_NAME": "ONEWEB-0064",
"OBJECT_ID": "2020-020K",
"EPOCH": "2021-05-13T18:21:29.396448",
"MEAN_MOTION": 13.11434139,
"ECCENTRICITY": 0.0001422,
"INCLINATION": 87.8946,
"RA_OF_ASC_NODE": 30.9567,
"ARG_OF_PERICENTER": 76.2751,
"MEAN_ANOMALY": 283.8535,
"EPHEMERIS_TYPE": 0,
"CLASSIFICATION_TYPE": "U",
"NORAD_CAT_ID": 45433,
"ELEMENT_SET_NO": 999,
"REV_AT_EPOCH": 5885,
"BSTAR": -0.0064888,
"MEAN_MOTION_DOT": -0.00002287,
"MEAN_MOTION_DDOT": 0
},
{
"OBJECT_NAME": "ONEWEB-0018",
"OBJECT_ID": "2020-020L",
"EPOCH": "2021-05-13T17:15:33.520608",
"MEAN_MOTION": 13.11413401,
"ECCENTRICITY": 0.0001882,
"INCLINATION": 87.894,
"RA_OF_ASC_NODE": 30.9458,
"ARG_OF_PERICENTER": 73.31,
"MEAN_ANOMALY": 286.8234,
"EPHEMERIS_TYPE": 0,
"CLASSIFICATION_TYPE": "U",
"NORAD_CAT_ID": 45434,
"ELEMENT_SET_NO": 999,
"REV_AT_EPOCH": 5879,
"BSTAR": 0.000080198,
"MEAN_MOTION_DOT": 4.1e-7,
"MEAN_MOTION_DDOT": 0
},
{
"OBJECT_NAME": "ONEWEB-0083",
"OBJECT_ID": "2020-020M",
"EPOCH": "2021-05-14T02:09:14.877792",
"MEAN_MOTION": 13.11414413,
"ECCENTRICITY": 0.0001743,
"INCLINATION": 87.8942,
"RA_OF_ASC_NODE": 30.8774,
"ARG_OF_PERICENTER": 74.7933,
"MEAN_ANOMALY": 285.3387,
"EPHEMERIS_TYPE": 0,
"CLASSIFICATION_TYPE": "U",
"NORAD_CAT_ID": 45435,
"ELEMENT_SET_NO": 999,
"REV_AT_EPOCH": 5888,
"BSTAR": 0.0015435,
"MEAN_MOTION_DOT": 0.0000056,
"MEAN_MOTION_DDOT": 0
},
{
"OBJECT_NAME": "ONEWEB-0095",
"OBJECT_ID": "2020-020N",
"EPOCH": "2021-05-13T18:27:44.241120",
"MEAN_MOTION": 13.11427869,
"ECCENTRICITY": 0.0001758,
"INCLINATION": 87.8943,
"RA_OF_ASC_NODE": 30.9422,
"ARG_OF_PERICENTER": 78.7709,
"MEAN_ANOMALY": 281.3617,
"EPHEMERIS_TYPE": 0,
"CLASSIFICATION_TYPE": "U",
"NORAD_CAT_ID": 45436,
"ELEMENT_SET_NO": 999,
"REV_AT_EPOCH": 5884,
"BSTAR": 0.0012077,
"MEAN_MOTION_DOT": 0.00000441,
"MEAN_MOTION_DDOT": 0
},
{
"OBJECT_NAME": "ONEWEB-0092",
"OBJECT_ID": "2020-020P",
"EPOCH": "2021-05-14T03:02:31.953408",
"MEAN_MOTION": 13.11552499,
"ECCENTRICITY": 0.0002523,
"INCLINATION": 87.8957,
"RA_OF_ASC_NODE": 30.8129,
"ARG_OF_PERICENTER": 86.9224,
"MEAN_ANOMALY": 273.2193,
"EPHEMERIS_TYPE": 0,
"CLASSIFICATION_TYPE": "U",
"NORAD_CAT_ID": 45437,
"ELEMENT_SET_NO": 999,
"REV_AT_EPOCH": 5899,
"BSTAR": -0.078605,
"MEAN_MOTION_DOT": -0.00027818,
"MEAN_MOTION_DDOT": 0
},
{
"OBJECT_NAME": "ONEWEB-0085",
"OBJECT_ID": "2020-020Q",
"EPOCH": "2021-05-13T18:40:20.095104",
"MEAN_MOTION": 13.11429237,
"ECCENTRICITY": 0.0001545,
"INCLINATION": 87.8943,
"RA_OF_ASC_NODE": 30.9555,
"ARG_OF_PERICENTER": 82.4247,
"MEAN_ANOMALY": 277.7056,
"EPHEMERIS_TYPE": 0,
"CLASSIFICATION_TYPE": "U",
"NORAD_CAT_ID": 45438,
"ELEMENT_SET_NO": 999,
"REV_AT_EPOCH": 5884,
"BSTAR": -0.0048637,
"MEAN_MOTION_DOT": -0.00001711,
"MEAN_MOTION_DDOT": 0
},
{
"OBJECT_NAME": "ONEWEB-0096",
"OBJECT_ID": "2020-020R",
"EPOCH": "2021-05-13T17:02:51.297216",
"MEAN_MOTION": 13.11310079,
"ECCENTRICITY": 0.0001692,
"INCLINATION": 87.8941,
"RA_OF_ASC_NODE": 30.9578,
"ARG_OF_PERICENTER": 79.2506,
"MEAN_ANOMALY": 280.8813,
"EPHEMERIS_TYPE": 0,
"CLASSIFICATION_TYPE": "U",
"NORAD_CAT_ID": 45439,
"ELEMENT_SET_NO": 999,
"REV_AT_EPOCH": 5882,
"BSTAR": -0.053546,
"MEAN_MOTION_DOT": -0.00018897,
"MEAN_MOTION_DDOT": 0
},
{
"OBJECT_NAME": "ONEWEB-0037",
"OBJECT_ID": "2020-020S",
"EPOCH": "2021-05-13T18:30:56.990880",
"MEAN_MOTION": 13.11429912,
"ECCENTRICITY": 0.0002261,
"INCLINATION": 87.8942,
"RA_OF_ASC_NODE": 30.957,
"ARG_OF_PERICENTER": 65.4534,
"MEAN_ANOMALY": 294.683,
"EPHEMERIS_TYPE": 0,
"CLASSIFICATION_TYPE": "U",
"NORAD_CAT_ID": 45440,
"ELEMENT_SET_NO": 999,
"REV_AT_EPOCH": 5886,
"BSTAR": 0.0013248,
"MEAN_MOTION_DOT": 0.00000482,
"MEAN_MOTION_DDOT": 0
},
{
"OBJECT_NAME": "ONEWEB-0042",
"OBJECT_ID": "2020-020T",
"EPOCH": "2021-05-13T18:05:46.615200",
"MEAN_MOTION": 13.11403127,
"ECCENTRICITY": 0.0001763,
"INCLINATION": 87.8947,
"RA_OF_ASC_NODE": 30.9492,
"ARG_OF_PERICENTER": 69.3995,
"MEAN_ANOMALY": 290.7321,
"EPHEMERIS_TYPE": 0,
"CLASSIFICATION_TYPE": "U",
"NORAD_CAT_ID": 45441,
"ELEMENT_SET_NO": 999,
"REV_AT_EPOCH": 5883,
"BSTAR": -0.0023569,
"MEAN_MOTION_DOT": -0.00000822,
"MEAN_MOTION_DDOT": 0
},
{
"OBJECT_NAME": "ONEWEB-0098",
"OBJECT_ID": "2020-020U",
"EPOCH": "2021-05-13T18:34:03.353952",
"MEAN_MOTION": 13.11425816,
"ECCENTRICITY": 0.0001488,
"INCLINATION": 87.8939,
"RA_OF_ASC_NODE": 30.9507,
"ARG_OF_PERICENTER": 82.6984,
"MEAN_ANOMALY": 277.4313,
"EPHEMERIS_TYPE": 0,
"CLASSIFICATION_TYPE": "U",
"NORAD_CAT_ID": 45442,
"ELEMENT_SET_NO": 999,
"REV_AT_EPOCH": 5880,
"BSTAR": 0.001485,
"MEAN_MOTION_DOT": 0.00000539,
"MEAN_MOTION_DDOT": 0
},
{
"OBJECT_NAME": "ONEWEB-0055",
"OBJECT_ID": "2020-020V",
"EPOCH": "2021-05-13T18:12:04.386240",
"MEAN_MOTION": 13.11414107,
"ECCENTRICITY": 0.0001845,
"INCLINATION": 87.8954,
"RA_OF_ASC_NODE": 30.8941,
"ARG_OF_PERICENTER": 78.3852,
"MEAN_ANOMALY": 281.7483,
"EPHEMERIS_TYPE": 0,
"CLASSIFICATION_TYPE": "U",
"NORAD_CAT_ID": 45443,
"ELEMENT_SET_NO": 999,
"REV_AT_EPOCH": 5878,
"BSTAR": -0.0016145,
"MEAN_MOTION_DOT": -0.00000559,
"MEAN_MOTION_DDOT": 0
},
{
"OBJECT_NAME": "ONEWEB-0093",
"OBJECT_ID": "2020-020W",
"EPOCH": "2021-05-13T17:37:29.891136",
"MEAN_MOTION": 13.11427616,
"ECCENTRICITY": 0.0001657,
"INCLINATION": 87.8942,
"RA_OF_ASC_NODE": 30.9585,
"ARG_OF_PERICENTER": 72.5493,
"MEAN_ANOMALY": 287.5816,
"EPHEMERIS_TYPE": 0,
"CLASSIFICATION_TYPE": "U",
"NORAD_CAT_ID": 45444,
"ELEMENT_SET_NO": 999,
"REV_AT_EPOCH": 5884,
"BSTAR": -0.0011678,
"MEAN_MOTION_DOT": -0.00000401,
"MEAN_MOTION_DDOT": 0
},
{
"OBJECT_NAME": "ONEWEB-0029",
"OBJECT_ID": "2020-020X",
"EPOCH": "2021-05-13T18:08:56.569056",
"MEAN_MOTION": 13.11417352,
"ECCENTRICITY": 0.0001733,
"INCLINATION": 87.8949,
"RA_OF_ASC_NODE": 30.9306,
"ARG_OF_PERICENTER": 99.8989,
"MEAN_ANOMALY": 260.2335,
"EPHEMERIS_TYPE": 0,
"CLASSIFICATION_TYPE": "U",
"NORAD_CAT_ID": 45445,
"ELEMENT_SET_NO": 999,
"REV_AT_EPOCH": 5882,
"BSTAR": 0.0071548,
"MEAN_MOTION_DOT": 0.00002549,
"MEAN_MOTION_DDOT": 0
},
{
"OBJECT_NAME": "ONEWEB-0068",
"OBJECT_ID": "2020-020Y",
"EPOCH": "2021-05-14T02:34:23.845152",
"MEAN_MOTION": 13.11475577,
"ECCENTRICITY": 0.0001351,
"INCLINATION": 87.8941,
"RA_OF_ASC_NODE": 30.8828,
"ARG_OF_PERICENTER": 80.2667,
"MEAN_ANOMALY": 279.8614,
"EPHEMERIS_TYPE": 0,
"CLASSIFICATION_TYPE": "U",
"NORAD_CAT_ID": 45446,
"ELEMENT_SET_NO": 999,
"REV_AT_EPOCH": 5881,
"BSTAR": 0.064565,
"MEAN_MOTION_DOT": 0.00022972,
"MEAN_MOTION_DDOT": 0
},
{
"OBJECT_NAME": "ONEWEB-0046",
"OBJECT_ID": "2020-020Z",
"EPOCH": "2021-05-13T17:18:42.971616",
"MEAN_MOTION": 13.1141399,
"ECCENTRICITY": 0.0001895,
"INCLINATION": 87.8941,
"RA_OF_ASC_NODE": 30.9636,
"ARG_OF_PERICENTER": 71.4367,
"MEAN_ANOMALY": 288.6967,
"EPHEMERIS_TYPE": 0,
"CLASSIFICATION_TYPE": "U",
"NORAD_CAT_ID": 45447,
"ELEMENT_SET_NO": 999,
"REV_AT_EPOCH": 5877,
"BSTAR": 0.000029862,
"MEAN_MOTION_DOT": 2.3e-7,
"MEAN_MOTION_DDOT": 0
}
]