ONEWEB-0027             
1 45432U 20020J   21132.66644579 -.00132236  00000-0 -32279+0 0  9999
2 45432  87.9366  16.0072 0024330 289.9281  69.9232 13.22163442 61215
ONEWEB-0064             
1 45433U 20020K   21133.76492357 -.00002287  00000-0 -64888-2 0  9993
2 45433  87.8946  30.9567 0001422  76.2751 283.8535 13.11434139 58850
ONEWEB-0018             
1 45434U 20020L   21133.71913797  .00000041  00000-0  80198-4 0  9993
2 45434  87.8940  30.9458 0001882  73.3100 286.8234 13.11413401 58791
ONEWEB-0083             
1 45435U 20020M   21134.08975553  .00000560  00000-0  15435-2 0  9999
2 45435  87.8942  30.8774 0001743  74.7933 285.3387 13.11414413 58886
ONEWEB-0095             
1 45436U 20020N   21133.76926205  .00000441  00000-0  12077-2 0  9991
2 45436  87.8943  30.9422 0001758  78.7709 281.3617 13.11427869 58847
ONEWEB-0092             
1 45437U 20020P   21134.12675872 -.00027818  00000-0 -78605-1 0  9991
2 45437  87.8957  30.8129 0002523  86.9224 273.2193 13.11552499 58993
ONEWEB-0085             
1 45438U 20020Q   21133.77801036 -.00001711  00000-0 -48637-2 0  9992
2 45438  87.8943  30.9555 0001545  82.4247 277.7056 13.11429237 58846
ONEWEB-0096             
1 45439U 20020R   21133.71031594 -.00018897  00000-0 -53546-1 0  9998
2 45439  87.8941  30.9578 0001692  79.2506 280.8813 13.11310079 58822
ONEWEB-0037             
1 45440U 20020S   21133.77149295  .00000482  00000-0  13248-2 0  9999
2 45440  87.8942  30.9570 0002261  65.4534 294.6830 13.11429912 58861
ONEWEB-0042             
1 45441U 20020T   21133.75401175 -.00000822  00000-0 -23569-2 0  9993
2 45441  87.8947  30.9492 0001763  69.3995 290.7321 13.11403127 58839
ONEWEB-0098             
1 45442U 20020U   21133.77364993  .00000539  00000-0  14850-2 0  9998
2 45442  87.8939  30.9507 0001488  82.6984 277.4313 13.11425816 58807
ONEWEB-0055             
1 45443U 20020V   21133.75838410 -.00000559  00000-0 -16145-2 0  9990
2 45443  87.8954  30.8941 0001845  78.3852 281.7483 13.11414107 58783
ONEWEB-0093             
1 45444U 20020W   21133.73437374 -.00000401  00000-0 -11678-2 0  9995
2 45444  87.8942  30.9585 0001657  72.5493 287.5816 13.11427616 58844
ONEWEB-0029             
1 45445U 20020X   21133.75621029  .00002549  00000-0  71548-2 0  9995
2 45445  87.8949  30.9306 0001733  99.8989 260.2335 13.11417352 58828
ONEWEB-0068             
1 45446U 20020Y   21134.10722043  .00022972  00000-0  64565-1 0  9996
2 45446  87.8941  30.8828 0001351  80.2667 279.8614 13.11475577 58810
ONEWEB-0046             
1 45447U 20020Z   21133.72133069  .00000023  00000-0  29862-4 0  9995
2 45447  87.8941  30.9636 0001895  71.4367 288.6967 13.11413990 58776
